{
  "type": "FeatureCollection",
  "features": [
    {
      "type": "Feature",
      "properties": {
        "norad_id": 30232,
        "name": "FENGYUN 1C DEB",
        "group": "fengyun-1c-debris",
        "lat": 24.552649033590605,
        "lon": 2.383398996813965,
        "alt_km": 754.9697027339598,
        "timestamp": "2025-12-04T15:47:54.372964+00:00",
        "meta_object_name": "FENGYUN 1C DEB",
        "meta_object_id": "1999-025WR",
        "meta_epoch": "2025-12-03T13:07:20.347392",
        "meta_mean_motion": 14.63478134,
        "meta_eccentricity": 0.01366604,
        "meta_inclination": 98.6935,
        "meta_ra_of_asc_node": 177.2035,
        "meta_arg_of_pericenter": 18.1616,
        "meta_mean_anomaly": 43.2969,
        "meta_ephemeris_type": 0,
        "meta_classification_type": "U",
        "meta_norad_cat_id": 30232,
        "meta_element_set_no": 999,
        "meta_rev_at_epoch": 99617,
        "meta_bstar": 0.00087662701,
        "meta_mean_motion_dot": 5.142e-05,
        "meta_mean_motion_ddot": 0,
        "tle_line1": "1 30232U 99025WR  25337.54676328  .00005142  00000+0  87663-3 0  9990",
        "tle_line2": "2 30232  98.6935 177.2035 0136660  18.1616  43.2969 14.63478134996178"
      },
      "geometry": {
        "type": "Point",
        "coordinates": [
          2.383398996813965,
          24.552649033590605
        ]
      }
    },
    {
      "type": "Feature",
      "properties": {
        "norad_id": 30234,
        "name": "FENGYUN 1C DEB",
        "group": "fengyun-1c-debris",
        "lat": -27.705657512914833,
        "lon": -5.749663835144764,
        "alt_km": 869.9817908048044,
        "timestamp": "2025-12-04T15:47:54.372974+00:00",
        "meta_object_name": "FENGYUN 1C DEB",
        "meta_object_id": "1999-025WT",
        "meta_epoch": "2025-12-04T00:57:31.394880",
        "meta_mean_motion": 14.16846888,
        "meta_eccentricity": 0.00670876,
        "meta_inclination": 98.6341,
        "meta_ra_of_asc_node": 349.0737,
        "meta_arg_of_pericenter": 99.7993,
        "meta_mean_anomaly": 320.8152,
        "meta_ephemeris_type": 0,
        "meta_classification_type": "U",
        "meta_norad_cat_id": 30234,
        "meta_element_set_no": 999,
        "meta_rev_at_epoch": 97333,
        "meta_bstar": 0.0005363652,
        "meta_mean_motion_dot": 1.057e-05,
        "meta_mean_motion_ddot": 0,
        "tle_line1": "1 30234U 99025WT  25338.03994670  .00001057  00000+0  53637-3 0  9995",
        "tle_line2": "2 30234  98.6341 349.0737 0067087  99.7993 320.8152 14.16846888973332"
      },
      "geometry": {
        "type": "Point",
        "coordinates": [
          -5.749663835144764,
          -27.705657512914833
        ]
      }
    },
    {
      "type": "Feature",
      "properties": {
        "norad_id": 30235,
        "name": "FENGYUN 1C DEB",
        "group": "fengyun-1c-debris",
        "lat": 12.961448207427171,
        "lon": 179.0918636821016,
        "alt_km": 872.2049253941477,
        "timestamp": "2025-12-04T15:47:54.372985+00:00",
        "meta_object_name": "FENGYUN 1C DEB",
        "meta_object_id": "1999-025WU",
        "meta_epoch": "2025-12-04T01:39:36.662112",
        "meta_mean_motion": 14.08759925,
        "meta_eccentricity": 0.015322,
        "meta_inclination": 98.7501,
        "meta_ra_of_asc_node": 356.4885,
        "meta_arg_of_pericenter": 263.1984,
        "meta_mean_anomaly": 159.3767,
        "meta_ephemeris_type": 0,
        "meta_classification_type": "U",
        "meta_norad_cat_id": 30235,
        "meta_element_set_no": 999,
        "meta_rev_at_epoch": 96771,
        "meta_bstar": 0.00071127979,
        "meta_mean_motion_dot": 1.322e-05,
        "meta_mean_motion_ddot": 0,
        "tle_line1": "1 30235U 99025WU  25338.06917433  .00001322  00000+0  71128-3 0  9991",
        "tle_line2": "2 30235  98.7501 356.4885 0153220 263.1984 159.3767 14.08759925967718"
      },
      "geometry": {
        "type": "Point",
        "coordinates": [
          179.0918636821016,
          12.961448207427171
        ]
      }
    },
    {
      "type": "Feature",
      "properties": {
        "norad_id": 30237,
        "name": "FENGYUN 1C DEB",
        "group": "fengyun-1c-debris",
        "lat": -69.25334551820971,
        "lon": -123.06727248030424,
        "alt_km": 761.6879162148653,
        "timestamp": "2025-12-04T15:47:54.372995+00:00",
        "meta_object_name": "FENGYUN 1C DEB",
        "meta_object_id": "1999-025WW",
        "meta_epoch": "2025-12-04T06:33:15.694848",
        "meta_mean_motion": 14.40689717,
        "meta_eccentricity": 0.00133238,
        "meta_inclination": 98.8271,
        "meta_ra_of_asc_node": 80.7545,
        "meta_arg_of_pericenter": 331.8619,
        "meta_mean_anomaly": 82.8547,
        "meta_ephemeris_type": 0,
        "meta_classification_type": "U",
        "meta_norad_cat_id": 30237,
        "meta_element_set_no": 999,
        "meta_rev_at_epoch": 97576,
        "meta_bstar": 0.0058755654,
        "meta_mean_motion_dot": 0.0001879,
        "meta_mean_motion_ddot": 0,
        "tle_line1": "1 30237U 99025WW  25338.27309832  .00018790  00000+0  58756-2 0  9992",
        "tle_line2": "2 30237  98.8271  80.7545 0013323 331.8619  82.8547 14.40689717975769"
      },
      "geometry": {
        "type": "Point",
        "coordinates": [
          -123.06727248030424,
          -69.25334551820971
        ]
      }
    },
    {
      "type": "Feature",
      "properties": {
        "norad_id": 30239,
        "name": "FENGYUN 1C DEB",
        "group": "fengyun-1c-debris",
        "lat": -68.33961738698271,
        "lon": -75.38955040304637,
        "alt_km": 2961.4862842991724,
        "timestamp": "2025-12-04T15:47:54.373006+00:00",
        "meta_object_name": "FENGYUN 1C DEB",
        "meta_object_id": "1999-025WY",
        "meta_epoch": "2025-12-03T08:48:46.117152",
        "meta_mean_motion": 11.38006263,
        "meta_eccentricity": 0.1345906,
        "meta_inclination": 99.5943,
        "meta_ra_of_asc_node": 128.9482,
        "meta_arg_of_pericenter": 47.2741,
        "meta_mean_anomaly": 323.3965,
        "meta_ephemeris_type": 0,
        "meta_classification_type": "U",
        "meta_norad_cat_id": 30239,
        "meta_element_set_no": 999,
        "meta_rev_at_epoch": 54428,
        "meta_bstar": 0.011334,
        "meta_mean_motion_dot": 3.74e-05,
        "meta_mean_motion_ddot": 0,
        "tle_line1": "1 30239U 99025WY  25337.36720043  .00003740  00000+0  11334-1 0  9993",
        "tle_line2": "2 30239  99.5943 128.9482 1345906  47.2741 323.3965 11.38006263544289"
      },
      "geometry": {
        "type": "Point",
        "coordinates": [
          -75.38955040304637,
          -68.33961738698271
        ]
      }
    },
    {
      "type": "Feature",
      "properties": {
        "norad_id": 30241,
        "name": "FENGYUN 1C DEB",
        "group": "fengyun-1c-debris",
        "lat": 6.727306238857398,
        "lon": 110.31838551034055,
        "alt_km": 873.6727979102388,
        "timestamp": "2025-12-04T15:47:54.373016+00:00",
        "meta_object_name": "FENGYUN 1C DEB",
        "meta_object_id": "1999-025XA",
        "meta_epoch": "2025-12-04T07:31:16.624704",
        "meta_mean_motion": 14.09532611,
        "meta_eccentricity": 0.01468627,
        "meta_inclination": 99.1481,
        "meta_ra_of_asc_node": 111.0571,
        "meta_arg_of_pericenter": 104.5231,
        "meta_mean_anomaly": 315.0058,
        "meta_ephemeris_type": 0,
        "meta_classification_type": "U",
        "meta_norad_cat_id": 30241,
        "meta_element_set_no": 999,
        "meta_rev_at_epoch": 96793,
        "meta_bstar": 0.00052871918,
        "meta_mean_motion_dot": 9.77e-06,
        "meta_mean_motion_ddot": 0,
        "tle_line1": "1 30241U 99025XA  25338.31338686  .00000977  00000+0  52872-3 0  9993",
        "tle_line2": "2 30241  99.1481 111.0571 0146862 104.5231 315.0058 14.09532611967931"
      },
      "geometry": {
        "type": "Point",
        "coordinates": [
          110.31838551034055,
          6.727306238857398
        ]
      }
    },
    {
      "type": "Feature",
      "properties": {
        "norad_id": 30242,
        "name": "FENGYUN 1C DEB",
        "group": "fengyun-1c-debris",
        "lat": 67.31677230371227,
        "lon": -8.437376135393414,
        "alt_km": 818.7072257701057,
        "timestamp": "2025-12-04T15:47:54.373027+00:00",
        "meta_object_name": "FENGYUN 1C DEB",
        "meta_object_id": "1999-025XB",
        "meta_epoch": "2025-12-04T02:11:01.185216",
        "meta_mean_motion": 14.17607666,
        "meta_eccentricity": 0.00114092,
        "meta_inclination": 98.6844,
        "meta_ra_of_asc_node": 12.4574,
        "meta_arg_of_pericenter": 78.4028,
        "meta_mean_anomaly": 337.1839,
        "meta_ephemeris_type": 0,
        "meta_classification_type": "U",
        "meta_norad_cat_id": 30242,
        "meta_element_set_no": 999,
        "meta_rev_at_epoch": 97304,
        "meta_bstar": 0.0010022224,
        "meta_mean_motion_dot": 1.996e-05,
        "meta_mean_motion_ddot": 0,
        "tle_line1": "1 30242U 99025XB  25338.09098594  .00001996  00000+0  10022-2 0  9992",
        "tle_line2": "2 30242  98.6844  12.4574 0011409  78.4028 337.1839 14.17607666973040"
      },
      "geometry": {
        "type": "Point",
        "coordinates": [
          -8.437376135393414,
          67.31677230371227
        ]
      }
    }
  ]
}